CCSDS_OMM_VERS = 2.0
CREATION_DATE  = 
ORIGINATOR     = 

OBJECT_NAME    = IDEFIX & ARIANE 42P R/B
OBJECT_ID      = 2002-021B
CENTER_NAME    = EARTH
REF_FRAME      = TEME
TIME_SYSTEM    = UTC
MEAN_ELEMENT_THEORY = SGP/SGP4

EPOCH          = 2026-01-27T19:14:56.001984
MEAN_MOTION    = 14.30994093
ECCENTRICITY   = .0011055
INCLINATION    = 98.5831
RA_OF_ASC_NODE = 326.9078
ARG_OF_PERICENTER = 312.2944
MEAN_ANOMALY   = 47.7301

EPHEMERIS_TYPE = 0
CLASSIFICATION_TYPE = U
NORAD_CAT_ID   = 27422
ELEMENT_SET_NO = 999
REV_AT_EPOCH   = 23817
BSTAR          = .22835E-3
MEAN_MOTION_DOT = .557E-5
MEAN_MOTION_DDOT = 0

CCSDS_OMM_VERS = 2.0
CREATION_DATE  = 
ORIGINATOR     = 

OBJECT_NAME    = AQUA
OBJECT_ID      = 2002-022A
CENTER_NAME    = EARTH
REF_FRAME      = TEME
TIME_SYSTEM    = UTC
MEAN_ELEMENT_THEORY = SGP/SGP4

EPOCH          = 2026-01-27T21:15:17.199936
MEAN_MOTION    = 14.61868111
ECCENTRICITY   = .000184
INCLINATION    = 98.4102
RA_OF_ASC_NODE = 354.5311
ARG_OF_PERICENTER = 63.5604
MEAN_ANOMALY   = 322.5877

EPHEMERIS_TYPE = 0
CLASSIFICATION_TYPE = U
NORAD_CAT_ID   = 27424
ELEMENT_SET_NO = 999
REV_AT_EPOCH   = 26277
BSTAR          = .36942E-3
MEAN_MOTION_DOT = .1798E-4
MEAN_MOTION_DDOT = 0

CCSDS_OMM_VERS = 2.0
CREATION_DATE  = 
ORIGINATOR     = 

OBJECT_NAME    = CZ-4B R/B
OBJECT_ID      = 2002-024C
CENTER_NAME    = EARTH
REF_FRAME      = TEME
TIME_SYSTEM    = UTC
MEAN_ELEMENT_THEORY = SGP/SGP4

EPOCH          = 2026-01-27T03:02:07.564416
MEAN_MOTION    = 14.14539470
ECCENTRICITY   = .00508489
INCLINATION    = 98.8929
RA_OF_ASC_NODE = 80.7246
ARG_OF_PERICENTER = 140.2881
MEAN_ANOMALY   = 275.0283

EPHEMERIS_TYPE = 0
CLASSIFICATION_TYPE = U
NORAD_CAT_ID   = 27432
ELEMENT_SET_NO = 999
REV_AT_EPOCH   = 22336
BSTAR          = .71971521E-4
MEAN_MOTION_DOT = .96E-6
MEAN_MOTION_DDOT = 0

CCSDS_OMM_VERS = 2.0
CREATION_DATE  = 
ORIGINATOR     = 

OBJECT_NAME    = MIDORI II (ADEOS-II)
OBJECT_ID      = 2002-056A
CENTER_NAME    = EARTH
REF_FRAME      = TEME
TIME_SYSTEM    = UTC
MEAN_ELEMENT_THEORY = SGP/SGP4

EPOCH          = 2026-01-27T18:43:50.906784
MEAN_MOTION    = 14.29250932
ECCENTRICITY   = .000202
INCLINATION    = 98.7700
RA_OF_ASC_NODE = 345.9948
ARG_OF_PERICENTER = 100.5485
MEAN_ANOMALY   = 259.5924

EPHEMERIS_TYPE = 0
CLASSIFICATION_TYPE = U
NORAD_CAT_ID   = 27597
ELEMENT_SET_NO = 999
REV_AT_EPOCH   = 20445
BSTAR          = .25074E-3
MEAN_MOTION_DOT = .592E-5
MEAN_MOTION_DDOT = 0

CCSDS_OMM_VERS = 2.0
CREATION_DATE  = 
ORIGINATOR     = 

OBJECT_NAME    = H-2A R/B
OBJECT_ID      = 2002-056E
CENTER_NAME    = EARTH
REF_FRAME      = TEME
TIME_SYSTEM    = UTC
MEAN_ELEMENT_THEORY = SGP/SGP4

EPOCH          = 2026-01-27T19:17:35.225952
MEAN_MOTION    = 14.33728139
ECCENTRICITY   = .0069083
INCLINATION    = 98.3130
RA_OF_ASC_NODE = 349.7449
ARG_OF_PERICENTER = 283.8067
MEAN_ANOMALY   = 96.6746

EPHEMERIS_TYPE = 0
CLASSIFICATION_TYPE = U
NORAD_CAT_ID   = 27601
ELEMENT_SET_NO = 999
REV_AT_EPOCH   = 20825
BSTAR          = .23958E-3
MEAN_MOTION_DOT = .641E-5
MEAN_MOTION_DDOT = 0

CCSDS_OMM_VERS = 2.0
CREATION_DATE  = 
ORIGINATOR     = 

OBJECT_NAME    = CZ-4B R/B
OBJECT_ID      = 2003-049C
CENTER_NAME    = EARTH
REF_FRAME      = TEME
TIME_SYSTEM    = UTC
MEAN_ELEMENT_THEORY = SGP/SGP4

EPOCH          = 2026-01-27T17:47:26.521152
MEAN_MOTION    = 14.54970062
ECCENTRICITY   = .004821
INCLINATION    = 98.6833
RA_OF_ASC_NODE = 21.0552
ARG_OF_PERICENTER = 358.1120
MEAN_ANOMALY   = 1.9886

EPHEMERIS_TYPE = 0
CLASSIFICATION_TYPE = U
NORAD_CAT_ID   = 28059
ELEMENT_SET_NO = 999
REV_AT_EPOCH   = 18064
BSTAR          = .21041E-3
MEAN_MOTION_DOT = .868E-5
MEAN_MOTION_DDOT = 0

CCSDS_OMM_VERS = 2.0
CREATION_DATE  = 
ORIGINATOR     = 

OBJECT_NAME    = CZ-2C R/B
OBJECT_ID      = 2004-012C
CENTER_NAME    = EARTH
REF_FRAME      = TEME
TIME_SYSTEM    = UTC
MEAN_ELEMENT_THEORY = SGP/SGP4

EPOCH          = 2026-01-27T19:18:06.699744
MEAN_MOTION    = 15.59863118
ECCENTRICITY   = .0016873
INCLINATION    = 97.7338
RA_OF_ASC_NODE = 89.3551
ARG_OF_PERICENTER = 101.2221
MEAN_ANOMALY   = 259.0932

EPHEMERIS_TYPE = 0
CLASSIFICATION_TYPE = U
NORAD_CAT_ID   = 28222
ELEMENT_SET_NO = 999
REV_AT_EPOCH   = 19789
BSTAR          = .71669E-3
MEAN_MOTION_DOT = .58176E-3
MEAN_MOTION_DDOT = 0

CCSDS_OMM_VERS = 2.0
CREATION_DATE  = 
ORIGINATOR     = 

OBJECT_NAME    = SL-16 R/B
OBJECT_ID      = 2004-021B
CENTER_NAME    = EARTH
REF_FRAME      = TEME
TIME_SYSTEM    = UTC
MEAN_ELEMENT_THEORY = SGP/SGP4

EPOCH          = 2026-01-27T19:07:58.149120
MEAN_MOTION    = 14.14591075
ECCENTRICITY   = .0002642
INCLINATION    = 71.0023
RA_OF_ASC_NODE = 318.3105
ARG_OF_PERICENTER = 112.6561
MEAN_ANOMALY   = 247.4841

EPHEMERIS_TYPE = 0
CLASSIFICATION_TYPE = U
NORAD_CAT_ID   = 28353
ELEMENT_SET_NO = 999
REV_AT_EPOCH   = 11705
BSTAR          = -.8268E-4
MEAN_MOTION_DOT = -.206E-5
MEAN_MOTION_DDOT = 0

CCSDS_OMM_VERS = 2.0
CREATION_DATE  = 
ORIGINATOR     = 

OBJECT_NAME    = CZ-4B R/B
OBJECT_ID      = 2004-035C
CENTER_NAME    = EARTH
REF_FRAME      = TEME
TIME_SYSTEM    = UTC
MEAN_ELEMENT_THEORY = SGP/SGP4

EPOCH          = 2026-01-27T12:56:57.818112
MEAN_MOTION    = 15.28272790
ECCENTRICITY   = .0034283
INCLINATION    = 97.3567
RA_OF_ASC_NODE = 62.2878
ARG_OF_PERICENTER = 113.6152
MEAN_ANOMALY   = 246.8694

EPHEMERIS_TYPE = 0
CLASSIFICATION_TYPE = U
NORAD_CAT_ID   = 28415
ELEMENT_SET_NO = 999
REV_AT_EPOCH   = 17362
BSTAR          = .3856E-3
MEAN_MOTION_DOT = .10737E-3
MEAN_MOTION_DDOT = 0

CCSDS_OMM_VERS = 2.0
CREATION_DATE  = 
ORIGINATOR     = 

OBJECT_NAME    = CZ-2C R/B
OBJECT_ID      = 2004-046B
CENTER_NAME    = EARTH
REF_FRAME      = TEME
TIME_SYSTEM    = UTC
MEAN_ELEMENT_THEORY = SGP/SGP4

EPOCH          = 2026-01-27T09:30:02.318688
MEAN_MOTION    = 14.26975192
ECCENTRICITY   = .01382248
INCLINATION    = 98.1999
RA_OF_ASC_NODE = 304.9427
ARG_OF_PERICENTER = 277.1269
MEAN_ANOMALY   = 81.4214

EPHEMERIS_TYPE = 0
CLASSIFICATION_TYPE = U
NORAD_CAT_ID   = 28480
ELEMENT_SET_NO = 999
REV_AT_EPOCH   = 10261
BSTAR          = .14637925E-3
MEAN_MOTION_DOT = .351E-5
MEAN_MOTION_DDOT = 0

CCSDS_OMM_VERS = 2.0
CREATION_DATE  = 
ORIGINATOR     = 

OBJECT_NAME    = ARIANE 5 R/B
OBJECT_ID      = 2004-049H
CENTER_NAME    = EARTH
REF_FRAME      = TEME
TIME_SYSTEM    = UTC
MEAN_ELEMENT_THEORY = SGP/SGP4

EPOCH          = 2026-01-27T17:43:48.825120
MEAN_MOTION    = 14.85169756
ECCENTRICITY   = .0085298
INCLINATION    = 98.2561
RA_OF_ASC_NODE = 194.6826
ARG_OF_PERICENTER = 123.3696
MEAN_ANOMALY   = 237.5717

EPHEMERIS_TYPE = 0
CLASSIFICATION_TYPE = U
NORAD_CAT_ID   = 28499
ELEMENT_SET_NO = 999
REV_AT_EPOCH   = 13971
BSTAR          = .2198E-3
MEAN_MOTION_DOT = .1946E-4
MEAN_MOTION_DDOT = 0

CCSDS_OMM_VERS = 2.0
CREATION_DATE  = 
ORIGINATOR     = 

OBJECT_NAME    = CZ-2D R/B
OBJECT_ID      = 2005-024B
CENTER_NAME    = EARTH
REF_FRAME      = TEME
TIME_SYSTEM    = UTC
MEAN_ELEMENT_THEORY = SGP/SGP4

EPOCH          = 2026-01-27T11:35:38.084352
MEAN_MOTION    = 15.56532901
ECCENTRICITY   = .00061245
INCLINATION    = 97.3629
RA_OF_ASC_NODE = 41.2338
ARG_OF_PERICENTER = 148.1068
MEAN_ANOMALY   = 212.0559

EPHEMERIS_TYPE = 0
CLASSIFICATION_TYPE = U
NORAD_CAT_ID   = 28738
ELEMENT_SET_NO = 999
REV_AT_EPOCH   = 13336
BSTAR          = .63824905E-3
MEAN_MOTION_DOT = .45385E-3
MEAN_MOTION_DDOT = 0

